<?xml version="1.0" encoding="UTF-8"?>
<ndm xmlns:xsi="http://www.w3.org/2001/XMLSchema-instance" xsi:noNamespaceSchemaLocation="https://sanaregistry.org/r/ndmxml_unqualified/ndmxml-2.0.0-master-2.0.xsd">
<omm id="CCSDS_OMM_VERS" version="2.0">
<header><CREATION_DATE/><ORIGINATOR/></header><body><segment><metadata><OBJECT_NAME>ORBCOMM FM37</OBJECT_NAME><OBJECT_ID>2008-031E</OBJECT_ID><CENTER_NAME>EARTH</CENTER_NAME><REF_FRAME>TEME</REF_FRAME><TIME_SYSTEM>UTC</TIME_SYSTEM><MEAN_ELEMENT_THEORY>SGP4</MEAN_ELEMENT_THEORY></metadata><data><meanElements><EPOCH>2024-05-12T14:09:33.680160</EPOCH><MEAN_MOTION>14.76433983</MEAN_MOTION><ECCENTRICITY>.0005463</ECCENTRICITY><INCLINATION>48.4403</INCLINATION><RA_OF_ASC_NODE>83.3157</RA_OF_ASC_NODE><ARG_OF_PERICENTER>99.5769</ARG_OF_PERICENTER><MEAN_ANOMALY>70.6640</MEAN_ANOMALY></meanElements><tleParameters><EPHEMERIS_TYPE>0</EPHEMERIS_TYPE><CLASSIFICATION_TYPE>U</CLASSIFICATION_TYPE><NORAD_CAT_ID>33064</NORAD_CAT_ID><ELEMENT_SET_NO>999</ELEMENT_SET_NO><REV_AT_EPOCH>85478</REV_AT_EPOCH><BSTAR>.10085E-2</BSTAR><MEAN_MOTION_DOT>.6891E-4</MEAN_MOTION_DOT><MEAN_MOTION_DDOT>0</MEAN_MOTION_DDOT></tleParameters></data></segment></body></omm>
<omm id="CCSDS_OMM_VERS" version="2.0">
<header><CREATION_DATE/><ORIGINATOR/></header><body><segment><metadata><OBJECT_NAME>ORBCOMM FM40</OBJECT_NAME><OBJECT_ID>2008-031F</OBJECT_ID><CENTER_NAME>EARTH</CENTER_NAME><REF_FRAME>TEME</REF_FRAME><TIME_SYSTEM>UTC</TIME_SYSTEM><MEAN_ELEMENT_THEORY>SGP4</MEAN_ELEMENT_THEORY></metadata><data><meanElements><EPOCH>2024-05-12T14:01:35.565888</EPOCH><MEAN_MOTION>14.77752353</MEAN_MOTION><ECCENTRICITY>.0006842</ECCENTRICITY><INCLINATION>48.4428</INCLINATION><RA_OF_ASC_NODE>72.6958</RA_OF_ASC_NODE><ARG_OF_PERICENTER>109.0510</ARG_OF_PERICENTER><MEAN_ANOMALY>61.2242</MEAN_ANOMALY></meanElements><tleParameters><EPHEMERIS_TYPE>0</EPHEMERIS_TYPE><CLASSIFICATION_TYPE>U</CLASSIFICATION_TYPE><NORAD_CAT_ID>33065</NORAD_CAT_ID><ELEMENT_SET_NO>999</ELEMENT_SET_NO><REV_AT_EPOCH>85482</REV_AT_EPOCH><BSTAR>.1024E-2</BSTAR><MEAN_MOTION_DOT>.7226E-4</MEAN_MOTION_DOT><MEAN_MOTION_DDOT>0</MEAN_MOTION_DDOT></tleParameters></data></segment></body></omm>
<omm id="CCSDS_OMM_VERS" version="2.0">
<header><CREATION_DATE/><ORIGINATOR/></header><body><segment><metadata><OBJECT_NAME>ORBCOMM FM107</OBJECT_NAME><OBJECT_ID>2014-040B</OBJECT_ID><CENTER_NAME>EARTH</CENTER_NAME><REF_FRAME>TEME</REF_FRAME><TIME_SYSTEM>UTC</TIME_SYSTEM><MEAN_ELEMENT_THEORY>SGP4</MEAN_ELEMENT_THEORY></metadata><data><meanElements><EPOCH>2024-05-12T07:47:36.312576</EPOCH><MEAN_MOTION>14.56612740</MEAN_MOTION><ECCENTRICITY>.0001988</ECCENTRICITY><INCLINATION>47.0038</INCLINATION><RA_OF_ASC_NODE>108.3093</RA_OF_ASC_NODE><ARG_OF_PERICENTER>259.7379</ARG_OF_PERICENTER><MEAN_ANOMALY>100.3282</MEAN_ANOMALY></meanElements><tleParameters><EPHEMERIS_TYPE>0</EPHEMERIS_TYPE><CLASSIFICATION_TYPE>U</CLASSIFICATION_TYPE><NORAD_CAT_ID>40087</NORAD_CAT_ID><ELEMENT_SET_NO>999</ELEMENT_SET_NO><REV_AT_EPOCH>52266</REV_AT_EPOCH><BSTAR>.11539E-2</BSTAR><MEAN_MOTION_DOT>.5031E-4</MEAN_MOTION_DOT><MEAN_MOTION_DDOT>0</MEAN_MOTION_DDOT></tleParameters></data></segment></body></omm>
<omm id="CCSDS_OMM_VERS" version="2.0">
<header><CREATION_DATE/><ORIGINATOR/></header><body><segment><metadata><OBJECT_NAME>ORBCOMM FM106</OBJECT_NAME><OBJECT_ID>2014-040C</OBJECT_ID><CENTER_NAME>EARTH</CENTER_NAME><REF_FRAME>TEME</REF_FRAME><TIME_SYSTEM>UTC</TIME_SYSTEM><MEAN_ELEMENT_THEORY>SGP4</MEAN_ELEMENT_THEORY></metadata><data><meanElements><EPOCH>2024-05-12T05:39:11.153664</EPOCH><MEAN_MOTION>14.67027358</MEAN_MOTION><ECCENTRICITY>.0017523</ECCENTRICITY><INCLINATION>47.0604</INCLINATION><RA_OF_ASC_NODE>321.7364</RA_OF_ASC_NODE><ARG_OF_PERICENTER>3.7596</ARG_OF_PERICENTER><MEAN_ANOMALY>356.3423</MEAN_ANOMALY></meanElements><tleParameters><EPHEMERIS_TYPE>0</EPHEMERIS_TYPE><CLASSIFICATION_TYPE>U</CLASSIFICATION_TYPE><NORAD_CAT_ID>40088</NORAD_CAT_ID><ELEMENT_SET_NO>999</ELEMENT_SET_NO><REV_AT_EPOCH>52455</REV_AT_EPOCH><BSTAR>.10073E-2</BSTAR><MEAN_MOTION_DOT>.5538E-4</MEAN_MOTION_DOT><MEAN_MOTION_DDOT>0</MEAN_MOTION_DDOT></tleParameters></data></segment></body></omm>
<omm id="CCSDS_OMM_VERS" version="2.0">
<header><CREATION_DATE/><ORIGINATOR/></header><body><segment><metadata><OBJECT_NAME>ORBCOMM FM111</OBJECT_NAME><OBJECT_ID>2014-040D</OBJECT_ID><CENTER_NAME>EARTH</CENTER_NAME><REF_FRAME>TEME</REF_FRAME><TIME_SYSTEM>UTC</TIME_SYSTEM><MEAN_ELEMENT_THEORY>SGP4</MEAN_ELEMENT_THEORY></metadata><data><meanElements><EPOCH>2024-05-12T12:25:23.930112</EPOCH><MEAN_MOTION>14.81802180</MEAN_MOTION><ECCENTRICITY>.003182</ECCENTRICITY><INCLINATION>47.0025</INCLINATION><RA_OF_ASC_NODE>221.1606</RA_OF_ASC_NODE><ARG_OF_PERICENTER>78.7428</ARG_OF_PERICENTER><MEAN_ANOMALY>281.7040</MEAN_ANOMALY></meanElements><tleParameters><EPHEMERIS_TYPE>0</EPHEMERIS_TYPE><CLASSIFICATION_TYPE>U</CLASSIFICATION_TYPE><NORAD_CAT_ID>40089</NORAD_CAT_ID><ELEMENT_SET_NO>999</ELEMENT_SET_NO><REV_AT_EPOCH>53071</REV_AT_EPOCH><BSTAR>.11678E-2</BSTAR><MEAN_MOTION_DOT>.921E-4</MEAN_MOTION_DOT><MEAN_MOTION_DDOT>0</MEAN_MOTION_DDOT></tleParameters></data></segment></body></omm>
<omm id="CCSDS_OMM_VERS" version="2.0">
<header><CREATION_DATE/><ORIGINATOR/></header><body><segment><metadata><OBJECT_NAME>ORBCOMM FM104</OBJECT_NAME><OBJECT_ID>2014-040E</OBJECT_ID><CENTER_NAME>EARTH</CENTER_NAME><REF_FRAME>TEME</REF_FRAME><TIME_SYSTEM>UTC</TIME_SYSTEM><MEAN_ELEMENT_THEORY>SGP4</MEAN_ELEMENT_THEORY></metadata><data><meanElements><EPOCH>2024-05-12T08:47:15.240768</EPOCH><MEAN_MOTION>14.55127573</MEAN_MOTION><ECCENTRICITY>.0016691</ECCENTRICITY><INCLINATION>47.0041</INCLINATION><RA_OF_ASC_NODE>137.0464</RA_OF_ASC_NODE><ARG_OF_PERICENTER>177.5017</ARG_OF_PERICENTER><MEAN_ANOMALY>182.5953</MEAN_ANOMALY></meanElements><tleParameters><EPHEMERIS_TYPE>0</EPHEMERIS_TYPE><CLASSIFICATION_TYPE>U</CLASSIFICATION_TYPE><NORAD_CAT_ID>40090</NORAD_CAT_ID><ELEMENT_SET_NO>999</ELEMENT_SET_NO><REV_AT_EPOCH>52221</REV_AT_EPOCH><BSTAR>.65404E-3</BSTAR><MEAN_MOTION_DOT>.2689E-4</MEAN_MOTION_DOT><MEAN_MOTION_DDOT>0</MEAN_MOTION_DDOT></tleParameters></data></segment></body></omm>

</ndm>
