ORBCOMM FM37            
1 33064U 08031E   24133.58997315  .00006891  00000+0  10085-2 0  9997
2 33064  48.4403  83.3157 0005463  99.5769  70.6640 14.76433983854784
ORBCOMM FM40            
1 33065U 08031F   24133.58443942  .00007226  00000+0  10240-2 0  9996
2 33065  48.4428  72.6958 0006842 109.0510  61.2242 14.77752353854820
ORBCOMM FM107           
1 40087U 14040B   24133.32472584  .00005031  00000+0  11539-2 0  9995
2 40087  47.0038 108.3093 0001988 259.7379 100.3282 14.56612740522668
ORBCOMM FM106           
1 40088U 14040C   24133.23554576  .00005538  00000+0  10073-2 0  9992
2 40088  47.0604 321.7364 0017523   3.7596 356.3423 14.67027358524557
ORBCOMM FM111           
1 40089U 14040D   24133.51763808  .00009210  00000+0  11678-2 0  9997
2 40089  47.0025 221.1606 0031820  78.7428 281.7040 14.81802180530710
ORBCOMM FM104           
1 40090U 14040E   24133.36614862  .00002689  00000+0  65404-3 0  9997
2 40090  47.0041 137.0464 0016691 177.5017 182.5953 14.55127573522212
